start=new Date('2023-06-25T00:00:00.000Z').valueOf();
sats=[{"RA_OF_ASC_NODE":"111.5333","TLE_LINE2":"2 51782  53.2161 111.5333 0001196  91.3274 268.7855 15.08840613 74528","MEAN_MOTION":"15.08840613","CLASSIFICATION_TYPE":"U","MEAN_MOTION_DOT":"0.00000465","ARG_OF_PERICENTER":"91.3274","RCS_SIZE":"LARGE","FILE":"3941395","MEAN_ELEMENT_THEORY":"SGP4","PERIAPSIS":"538.916","EPOCH":"2023-06-24T02:35:56.456448","OBJECT_TYPE":"PAYLOAD","INCLINATION":"53.2161","BSTAR":"0.00004730900000","TIME_SYSTEM":"UTC","DECAY_DATE":null,"TLE_LINE1":"1 51782U 22017Q   23175.10829232  .00000465  00000-0  47309-4 0  9992","MEAN_MOTION_DDOT":"0.0000000000000","ECCENTRICITY":"0.00011960","REF_FRAME":"TEME","SEMIMAJOR_AXIS":"6917.879","OBJECT_NAME":"STARLINK-3616","PERIOD":"95.438","ELEMENT_SET_NO":"999","APOAPSIS":"540.571","COUNTRY_CODE":"US","GP_ID":"234519528","NORAD_CAT_ID":"51782","CENTER_NAME":"EARTH","SITE":"AFWTR","EPHEMERIS_TYPE":"0","MEAN_ANOMALY":"268.7855","OBJECT_ID":"2022-017Q","REV_AT_EPOCH":"7452","LAUNCH_DATE":"2022-02-25"},{"ARG_OF_PERICENTER":"89.3289","RCS_SIZE":"LARGE","PERIAPSIS":"538.958","EPOCH":"2023-06-24T03:46:09.320448","MEAN_ELEMENT_THEORY":"SGP4","FILE":"3941381","OBJECT_TYPE":"PAYLOAD","TLE_LINE2":"2 51783  53.2168 101.3539 0001108  89.3289 270.7830 15.08846791 74672","RA_OF_ASC_NODE":"101.3539","MEAN_MOTION":"15.08846791","CLASSIFICATION_TYPE":"U","MEAN_MOTION_DOT":"0.00000398","REF_FRAME":"TEME","BSTAR":"0.00004308500000","INCLINATION":"53.2168","DECAY_DATE":null,"TIME_SYSTEM":"UTC","TLE_LINE1":"1 51783U 22017R   23175.15705232  .00000398  00000-0  43085-4 0  9993","MEAN_MOTION_DDOT":"0.0000000000000","ECCENTRICITY":"0.00011080","ELEMENT_SET_NO":"999","PERIOD":"95.437","APOAPSIS":"540.491","COUNTRY_CODE":"US","SEMIMAJOR_AXIS":"6917.860","OBJECT_NAME":"STARLINK-3628","MEAN_ANOMALY":"270.7830","OBJECT_ID":"2022-017R","LAUNCH_DATE":"2022-02-25","REV_AT_EPOCH":"7467","GP_ID":"234519548","SITE":"AFWTR","NORAD_CAT_ID":"51783","CENTER_NAME":"EARTH","EPHEMERIS_TYPE":"0"},{"MEAN_MOTION_DOT":"0.00001279","CLASSIFICATION_TYPE":"U","MEAN_MOTION":"15.08840511","TLE_LINE2":"2 51784  53.2170 111.5435 0001275  95.7911 264.3226 15.08840511 74539","RA_OF_ASC_NODE":"111.5435","OBJECT_TYPE":"PAYLOAD","FILE":"3941381","MEAN_ELEMENT_THEORY":"SGP4","EPOCH":"2023-06-24T02:29:15.757440","PERIAPSIS":"538.862","RCS_SIZE":"LARGE","ARG_OF_PERICENTER":"95.7911","ECCENTRICITY":"0.00012750","TLE_LINE1":"1 51784U 22017S   23175.10365460  .00001279  00000-0  98457-4 0  9996","MEAN_MOTION_DDOT":"0.0000000000000","TIME_SYSTEM":"UTC","DECAY_DATE":null,"INCLINATION":"53.2170","BSTAR":"0.00009845700000","REF_FRAME":"TEME","OBJECT_NAME":"STARLINK-3632","SEMIMAJOR_AXIS":"6917.879","COUNTRY_CODE":"US","APOAPSIS":"540.626","ELEMENT_SET_NO":"999","PERIOD":"95.438","EPHEMERIS_TYPE":"0","NORAD_CAT_ID":"51784","CENTER_NAME":"EARTH","SITE":"AFWTR","GP_ID":"234519049","LAUNCH_DATE":"2022-02-25","REV_AT_EPOCH":"7453","OBJECT_ID":"2022-017S","MEAN_ANOMALY":"264.3226"},{"TLE_LINE2":"2 51785  53.2174 101.6327 0001257 108.6986 251.4142 15.08837568 74712","RA_OF_ASC_NODE":"101.6327","MEAN_MOTION":"15.08837568","CLASSIFICATION_TYPE":"U","MEAN_MOTION_DOT":"-0.00000129","ARG_OF_PERICENTER":"108.6986","RCS_SIZE":"LARGE","MEAN_ELEMENT_THEORY":"SGP4","FILE":"3941381","EPOCH":"2023-06-24T01:58:47.552448","PERIAPSIS":"538.883","OBJECT_TYPE":"PAYLOAD","BSTAR":"0.00000996940000","INCLINATION":"53.2174","TIME_SYSTEM":"UTC","DECAY_DATE":null,"TLE_LINE1":"1 51785U 22017T   23175.08249482 -.00000129  00000-0  99694-5 0  9998","MEAN_MOTION_DDOT":"0.0000000000000","ECCENTRICITY":"0.00012570","REF_FRAME":"TEME","SEMIMAJOR_AXIS":"6917.888","OBJECT_NAME":"STARLINK-3646","PERIOD":"95.438","ELEMENT_SET_NO":"999","APOAPSIS":"540.622","COUNTRY_CODE":"US","GP_ID":"234519546","NORAD_CAT_ID":"51785","CENTER_NAME":"EARTH","SITE":"AFWTR","EPHEMERIS_TYPE":"0","MEAN_ANOMALY":"251.4142","OBJECT_ID":"2022-017T","LAUNCH_DATE":"2022-02-25","REV_AT_EPOCH":"7471"},{"OBJECT_NAME":"STARLINK-3638","SEMIMAJOR_AXIS":"6917.869","COUNTRY_CODE":"US","APOAPSIS":"540.677","PERIOD":"95.437","ELEMENT_SET_NO":"999","EPHEMERIS_TYPE":"0","SITE":"AFWTR","NORAD_CAT_ID":"51786","CENTER_NAME":"EARTH","GP_ID":"234512111","LAUNCH_DATE":"2022-02-25","REV_AT_EPOCH":"7449","OBJECT_ID":"2022-017U","MEAN_ANOMALY":"275.7335","MEAN_MOTION_DOT":"0.00001192","CLASSIFICATION_TYPE":"U","MEAN_MOTION":"15.08843717","RA_OF_ASC_NODE":"113.9577","TLE_LINE2":"2 51786  53.2173 113.9577 0001363  84.3812 275.7335 15.08843717 74492","OBJECT_TYPE":"PAYLOAD","PERIAPSIS":"538.791","EPOCH":"2023-06-23T13:35:34.439712","FILE":"3941083","MEAN_ELEMENT_THEORY":"SGP4","RCS_SIZE":"LARGE","ARG_OF_PERICENTER":"84.3812","ECCENTRICITY":"0.00013630","MEAN_MOTION_DDOT":"0.0000000000000","TLE_LINE1":"1 51786U 22017U   23174.56637083  .00001192  00000-0  92977-4 0  9995","DECAY_DATE":null,"TIME_SYSTEM":"UTC","INCLINATION":"53.2173","BSTAR":"0.00009297700000","REF_FRAME":"TEME"},{"OBJECT_NAME":"STARLINK-3619","SEMIMAJOR_AXIS":"6917.882","COUNTRY_CODE":"US","APOAPSIS":"540.649","ELEMENT_SET_NO":"999","PERIOD":"95.438","EPHEMERIS_TYPE":"0","SITE":"AFWTR","CENTER_NAME":"EARTH","NORAD_CAT_ID":"51787","GP_ID":"234532641","REV_AT_EPOCH":"7458","LAUNCH_DATE":"2022-02-25","OBJECT_ID":"2022-017V","MEAN_ANOMALY":"270.2468","MEAN_MOTION_DOT":"-0.00000827","CLASSIFICATION_TYPE":"U","MEAN_MOTION":"15.08839436","RA_OF_ASC_NODE":"109.7260","TLE_LINE2":"2 51787  53.2172 109.7260 0001304  89.8674 270.2468 15.08839436 74585","OBJECT_TYPE":"PAYLOAD","EPOCH":"2023-06-24T12:12:10.826496","PERIAPSIS":"538.845","FILE":"3941933","MEAN_ELEMENT_THEORY":"SGP4","RCS_SIZE":"LARGE","ARG_OF_PERICENTER":"89.8674","ECCENTRICITY":"0.00013040","TLE_LINE1":"1 51787U 22017V   23175.50845864 -.00000827  00000-0 -33871-4 0  9993","MEAN_MOTION_DDOT":"0.0000000000000","DECAY_DATE":null,"TIME_SYSTEM":"UTC","BSTAR":"-0.00003387100000","INCLINATION":"53.2172","REF_FRAME":"TEME"},{"PERIOD":"95.438","ELEMENT_SET_NO":"999","APOAPSIS":"540.674","COUNTRY_CODE":"US","SEMIMAJOR_AXIS":"6917.878","OBJECT_NAME":"STARLINK-3641","MEAN_ANOMALY":"275.0938","OBJECT_ID":"2022-017W","REV_AT_EPOCH":"7444","LAUNCH_DATE":"2022-02-25","GP_ID":"234512201","SITE":"AFWTR","CENTER_NAME":"EARTH","NORAD_CAT_ID":"51788","EPHEMERIS_TYPE":"0","ARG_OF_PERICENTER":"85.0208","RCS_SIZE":"LARGE","EPOCH":"2023-06-23T13:19:40.795392","PERIAPSIS":"538.813","MEAN_ELEMENT_THEORY":"SGP4","FILE":"3941083","OBJECT_TYPE":"PAYLOAD","TLE_LINE2":"2 51788  53.2172 114.0051 0001345  85.0208 275.0938 15.08840667 74447","RA_OF_ASC_NODE":"114.0051","MEAN_MOTION":"15.08840667","CLASSIFICATION_TYPE":"U","MEAN_MOTION_DOT":"0.00001108","REF_FRAME":"TEME","INCLINATION":"53.2172","BSTAR":"0.00008768600000","DECAY_DATE":null,"TIME_SYSTEM":"UTC","MEAN_MOTION_DDOT":"0.0000000000000","TLE_LINE1":"1 51788U 22017W   23174.55533328  .00001108  00000-0  87686-4 0  9991","ECCENTRICITY":"0.00013450"},{"MEAN_MOTION_DOT":"0.00000437","CLASSIFICATION_TYPE":"U","MEAN_MOTION":"15.08841195","RA_OF_ASC_NODE":"111.5601","TLE_LINE2":"2 51789  53.2169 111.5601 0001408  95.8065 264.3087 15.08841195 74530","OBJECT_TYPE":"PAYLOAD","EPOCH":"2023-06-24T02:23:57.766560","PERIAPSIS":"538.768","FILE":"3941381","MEAN_ELEMENT_THEORY":"SGP4","RCS_SIZE":"LARGE","ARG_OF_PERICENTER":"95.8065","ECCENTRICITY":"0.00014080","TLE_LINE1":"1 51789U 22017X   23175.09997415  .00000437  00000-0  45536-4 0  9995","MEAN_MOTION_DDOT":"0.0000000000000","DECAY_DATE":null,"TIME_SYSTEM":"UTC","INCLINATION":"53.2169","BSTAR":"0.00004553600000","REF_FRAME":"TEME","OBJECT_NAME":"STARLINK-3639","SEMIMAJOR_AXIS":"6917.877","COUNTRY_CODE":"US","APOAPSIS":"540.716","PERIOD":"95.437","ELEMENT_SET_NO":"999","EPHEMERIS_TYPE":"0","SITE":"AFWTR","NORAD_CAT_ID":"51789","CENTER_NAME":"EARTH","GP_ID":"234519039","LAUNCH_DATE":"2022-02-25","REV_AT_EPOCH":"7453","OBJECT_ID":"2022-017X","MEAN_ANOMALY":"264.3087"},{"REF_FRAME":"TEME","ECCENTRICITY":"0.00013920","TLE_LINE1":"1 51790U 22017Y   23174.55165844  .00000705  00000-0  62362-4 0  9994","MEAN_MOTION_DDOT":"0.0000000000000","DECAY_DATE":null,"TIME_SYSTEM":"UTC","BSTAR":"0.00006236200000","INCLINATION":"53.2172","OBJECT_TYPE":"PAYLOAD","PERIAPSIS":"538.793","EPOCH":"2023-06-23T13:14:23.289216","MEAN_ELEMENT_THEORY":"SGP4","FILE":"3941083","RCS_SIZE":"LARGE","ARG_OF_PERICENTER":"79.2655","MEAN_MOTION_DOT":"0.00000705","CLASSIFICATION_TYPE":"U","MEAN_MOTION":"15.08836670","TLE_LINE2":"2 51790  53.2172 114.0209 0001392  79.2655 280.8493 15.08836670 74492","RA_OF_ASC_NODE":"114.0209","REV_AT_EPOCH":"7449","LAUNCH_DATE":"2022-02-25","OBJECT_ID":"2022-017Y","MEAN_ANOMALY":"280.8493","EPHEMERIS_TYPE":"0","SITE":"AFWTR","NORAD_CAT_ID":"51790","CENTER_NAME":"EARTH","GP_ID":"234512202","COUNTRY_CODE":"US","APOAPSIS":"540.719","PERIOD":"95.438","ELEMENT_SET_NO":"999","OBJECT_NAME":"STARLINK-3631","SEMIMAJOR_AXIS":"6917.891"},{"ELEMENT_SET_NO":"999","PERIOD":"95.437","APOAPSIS":"540.582","COUNTRY_CODE":"US","SEMIMAJOR_AXIS":"6917.876","OBJECT_NAME":"STARLINK-3602","MEAN_ANOMALY":"263.5136","OBJECT_ID":"2022-017Z","REV_AT_EPOCH":"7452","LAUNCH_DATE":"2022-02-25","GP_ID":"234519052","CENTER_NAME":"EARTH","NORAD_CAT_ID":"51791","SITE":"AFWTR","EPHEMERIS_TYPE":"0","ARG_OF_PERICENTER":"96.5994","RCS_SIZE":"LARGE","FILE":"3941381","MEAN_ELEMENT_THEORY":"SGP4","EPOCH":"2023-06-24T02:13:21.694944","PERIAPSIS":"538.901","OBJECT_TYPE":"PAYLOAD","TLE_LINE2":"2 51791  53.2167 111.5931 0001215  96.5994 263.5136 15.08841411 74528","RA_OF_ASC_NODE":"111.5931","MEAN_MOTION":"15.08841411","CLASSIFICATION_TYPE":"U","MEAN_MOTION_DOT":"0.00000721","REF_FRAME":"TEME","BSTAR":"0.00006336100000","INCLINATION":"53.2167","TIME_SYSTEM":"UTC","DECAY_DATE":null,"TLE_LINE1":"1 51791U 22017Z   23175.09261221  .00000721  00000-0  63361-4 0  9999","MEAN_MOTION_DDOT":"0.0000000000000","ECCENTRICITY":"0.00012150"}];
